ISS (ZARYA)             
1 25544U 98067A   25337.89837126  .00013627  00000+0  25253-3 0  9992
2 25544  51.6303 186.2514 0003592 201.3576 158.7263 15.49284650541488
CSS (TIANHE)            
1 48274U 21035A   25338.13005286  .00035664  00000+0  45303-3 0  9993
2 48274  41.4681  68.9550 0009979 324.5807  35.4367 15.58626502262689
ISS (NAUKA)             
1 49044U 21066A   25337.89837127  .00013627  00000+0  25253-3 0  9999
2 49044  51.6303 186.2514 0003592 201.3576 158.7263 15.49284650230440
FREGAT DEB              
1 49271U 11037PF  25337.09806687  .00005106  00000+0  11436-1 0  9996
2 49271  51.6221 227.9391 0868359 202.8869 153.0958 12.34338715200740
CSS (WENTIAN)           
1 53239U 22085A   25337.74559546  .00027527  00000+0  35133-3 0  9994
2 53239  41.4679  71.2873 0010068 322.1315  37.8814 15.58598848173840
CSS (MENGTIAN)          
1 54216U 22143A   25337.74559546  .00027527  00000+0  35133-3 0  9995
2 54216  41.4679  71.2873 0010068 322.1315  37.8814 15.58598848158647
SOYUZ-MS 27             
1 63520U 25072A   25337.89837127  .00013627  00000+0  25253-3 0  9995
2 63520  51.6303 186.2514 0003592 201.3576 158.7263 15.49284650 20206
SHENZHOU-20 (SZ-20)     
1 63632U 25082A   25337.74559546  .00027527  00000+0  35133-3 0  9992
2 63632  41.4679  71.2873 0010068 322.1315  37.8814 15.58598848255300
PROGRESS-MS 31          
1 64751U 25146A   25337.89837127  .00013627  00000+0  25253-3 0  9994
2 64751  51.6303 186.2514 0003592 201.3576 158.7263 15.49284650  6757
TIANZHOU-9              
1 64786U 25149A   25337.74559546  .00027527  00000+0  35133-3 0  9997
2 64786  41.4679  71.2873 0010068 322.1315  37.8814 15.58598848255301
CREW DRAGON 11          
1 65077U 25166A   25337.89837127  .00013627  00000+0  25253-3 0  9998
2 65077  51.6303 186.2514 0003592 201.3576 158.7263 15.49284650  2148
DRAGON CRS-33           
1 65304U 25186A   25337.89837127  .00013627  00000+0  25253-3 0  9993
2 65304  51.6303 186.2514 0003592 201.3576 158.7263 15.49284650   116
